{"fetched_at":"2026-03-29T02:12:04Z","count":15717,"tles":[{"name":"STARLINK-11232 [DTC]","line1":"1 60401U 24141D   26087.13534054  .00006581  00000+0  59208-4 0  9998","line2":"2 60401  53.1597 355.0626 0001193  92.6883 267.4272 15.69680445 94641","category":"Starlink"}]}